NORAD_CAT_ID,OBJECT_NAME,OBJECT_TYPE,EPOCH,MEAN_MOTION,ECCENTRICITY,INCLINATION,RA_OF_ASC_NODE,ARG_OF_PERICENTER,MEAN_ANOMALY,BSTAR,MEAN_MOTION_DOT,MEAN_MOTION_DDOT,TLE_LINE0,TLE_LINE1,TLE_LINE2,SEMIMAJOR_AXIS,PERIOD,APOGEE,PERIGEE,DECAYED
53540.0,STARLINK-4486,PAYLOAD,2023-09-14 03:33:03,15.08853375,0.0001229,53.2176,178.2304,100.9703,259.1427,0.00011374,1.523e-05,0.0,0 STARLINK-4486,1 53540U 22101P   23257.14795152  .00001523  00000-0  11374-3 0  9996,2 53540  53.2176 178.2304 0001229 100.9703 259.1427 15.08853375 59292,6917.84,95.437,540.555,538.854,0.0
53540.0,STARLINK-4486,PAYLOAD,2023-09-15 01:48:28,15.08834568,0.0001292,53.2178,174.0686,90.0665,270.0475,-7.164e-05,-1.428e-05,0.0,0 STARLINK-4486,1 53540U 22101P   23258.07533161 -.00001428  00000-0 -71640-4 0  9998,2 53540  53.2178 174.0686 0001292  90.0665 270.0475 15.08834568 59431,6917.897,95.438,540.656,538.868,0.0
53540.0,STARLINK-4486,PAYLOAD,2023-09-15 03:23:51,15.08839148,0.0001265,53.2175,173.7698,84.0218,276.0919,-4.8324e-05,-1.057e-05,0.0,0 STARLINK-4486,1 53540U 22101P   23258.14156806 -.00001057  00000-0 -48324-4 0  9994,2 53540  53.2175 173.7698 0001265  84.0218 276.0919 15.08839148 60131,6917.883,95.438,540.623,538.873,0.0
53540.0,STARLINK-4486,PAYLOAD,2023-09-16 01:39:14,15.08849302,0.000118,53.2174,169.6069,84.9036,275.2091,6.6419e-05,7.7e-06,0.0,0 STARLINK-4486,1 53540U 22101P   23259.06892068  .00000770  00000-0  66419-4 0  9997,2 53540  53.2174 169.6069 0001180  84.9036 275.2091 15.08849302 59581,6917.852,95.437,540.533,538.901,0.0
53540.0,STARLINK-4486,PAYLOAD,2023-09-16 03:14:37,15.0885299,0.0001208,53.2177,169.3098,88.7589,271.3542,0.00010255,1.345e-05,0.0,0 STARLINK-4486,1 53540U 22101P   23259.13515757  .00001345  00000-0  10255-3 0  9997,2 53540  53.2177 169.3098 0001208  88.7589 271.3542 15.08852990 60283,6917.841,95.437,540.541,538.87,0.0
53540.0,STARLINK-4486,PAYLOAD,2023-09-16 17:33:07,15.08833811,0.0001349,53.2176,166.6332,86.2215,273.8931,7.8373e-05,9.59e-06,0.0,0 STARLINK-4486,1 53540U 22101P   23259.73133320  .00000959  00000-0  78373-4 0  9991,2 53540  53.2176 166.6332 0001349  86.2215 273.8931 15.08833811 59680,6917.899,95.438,540.698,538.831,0.0
53540.0,STARLINK-4486,PAYLOAD,2023-09-17 01:30:02,15.08842952,0.000132,53.2176,165.1467,91.8074,268.3069,0.00016543,2.346e-05,0.0,0 STARLINK-4486,1 53540U 22101P   23260.06252695  .00002346  00000-0  16543-3 0  9998,2 53540  53.2176 165.1467 0001320  91.8074 268.3069 15.08842952 59730,6917.871,95.437,540.65,538.823,0.0
53540.0,STARLINK-4486,PAYLOAD,2023-09-17 03:05:25,15.08846611,0.0001307,53.2175,164.849,91.7944,268.3198,0.00020397,2.96e-05,0.0,0 STARLINK-4486,1 53540U 22101P   23260.12876532  .00002960  00000-0  20397-3 0  9991,2 53540  53.2175 164.8490 0001307  91.7944 268.3198 15.08846611 60439,6917.86,95.437,540.629,538.821,0.0
53540.0,STARLINK-4486,PAYLOAD,2023-09-17 23:45:25,15.0885042,0.0001382,53.2168,160.9835,99.3119,260.8029,9.8705e-05,1.284e-05,0.0,0 STARLINK-4486,1 53540U 22101P   23260.98988273  .00001284  00000-0  98705-4 0  9998,2 53540  53.2168 160.9835 0001382  99.3119 260.8029 15.08850420 60569,6917.849,95.437,540.67,538.757,0.0
53540.0,STARLINK-4486,PAYLOAD,2023-09-18 20:25:27,15.08843333,0.0001331,53.2167,157.1173,94.8735,265.2409,6.7735e-05,7.9e-06,0.0,0 STARLINK-4486,1 53540U 22101P   23261.85100732  .00000790  00000-0  67735-4 0  9991,2 53540  53.2167 157.1173 0001331  94.8735 265.2409 15.08843333 60699,6917.87,95.437,540.656,538.814,0.0
53540.0,STARLINK-4486,PAYLOAD,2023-09-18 23:36:13,15.08847394,0.0001371,53.2166,156.5223,93.0887,267.0262,0.00012544,1.709e-05,0.0,0 STARLINK-4486,1 53540U 22101P   23261.98348514  .00001709  00000-0  12544-3 0  9995,2 53540  53.2166 156.5223 0001371  93.0887 267.0262 15.08847394 60025,6917.858,95.437,540.671,538.774,0.0
53540.0,STARLINK-4486,PAYLOAD,2023-09-20 02:37:45,15.08854759,0.000143,53.2165,151.4661,96.4881,263.6274,0.00027821,4.144e-05,0.0,0 STARLINK-4486,1 53540U 22101P   23263.10955697  .00004144  00000-0  27821-3 0  9997,2 53540  53.2165 151.4661 0001430  96.4881 263.6274 15.08854759 60197,6917.835,95.437,540.69,538.711,0.0
53540.0,STARLINK-4486,PAYLOAD,2023-09-20 12:10:05,15.08833942,0.0001918,53.216,149.6763,130.989,229.1268,-0.00016701,-2.945e-05,0.0,0 STARLINK-4486,1 53540U 22101P   23263.50700428 -.00002945  00000-0 -16701-3 0  9995,2 53540  53.2160 149.6763 0001918 130.9890 229.1268 15.08833942 60943,6917.899,95.438,541.091,538.437,0.0
53540.0,STARLINK-4486,PAYLOAD,2023-09-20 21:42:25,15.08816473,0.000135,53.2175,147.9058,78.8551,281.2593,-0.00032456,-5.446e-05,0.0,0 STARLINK-4486,1 53540U 22101P   23263.90445908 -.00005446  00000-0 -32456-3 0  9992,2 53540  53.2175 147.9058 0001350  78.8551 281.2593 15.08816473 61009,6917.952,95.439,540.751,538.883,0.0
53540.0,STARLINK-4486,PAYLOAD,2023-09-20 23:17:48,15.0882157,0.0001399,53.2166,147.6016,84.6494,275.4658,-0.00021226,-3.663e-05,0.0,0 STARLINK-4486,1 53540U 22101P   23263.97069943 -.00003663  00000-0 -21226-3 0  9992,2 53540  53.2166 147.6016 0001399  84.6494 275.4658 15.08821570 60329,6917.937,95.439,540.77,538.834,0.0
53540.0,STARLINK-4486,PAYLOAD,2023-09-21 16:47:02,15.088357,0.0001266,53.216,144.3298,89.1399,270.9738,-2.221e-05,-6.41e-06,0.0,0 STARLINK-4486,1 53540U 22101P   23264.69933714 -.00000641  00000-0 -22210-4 0  9996,2 53540  53.2160 144.3298 0001266  89.1399 270.9738 15.08835700 60437,6917.894,95.438,540.634,538.883,0.0
53540.0,STARLINK-4486,PAYLOAD,2023-09-21 23:08:35,15.08843967,0.0001409,53.2171,143.1447,96.8256,263.2897,0.00015578,2.192e-05,0.0,0 STARLINK-4486,1 53540U 22101P   23264.96429464  .00002192  00000-0  15578-3 0  9997,2 53540  53.2171 143.1447 0001409  96.8256 263.2897 15.08843967 61164,6917.868,95.437,540.708,538.759,0.0
53540.0,STARLINK-4486,PAYLOAD,2023-09-22 00:43:58,15.08844434,0.0001408,53.2171,142.8457,87.1173,272.998,0.00036355,5.503e-05,0.0,0 STARLINK-4486,1 53540U 22101P   23265.03053694  .00005503  00000-0  36355-3 0  9999,2 53540  53.2171 142.8457 0001408  87.1173 272.9980 15.08844434 60485,6917.867,95.437,540.706,538.758,0.0
53540.0,STARLINK-4486,PAYLOAD,2023-09-22 21:23:59,15.08848791,0.0001415,53.2167,138.9803,83.4103,276.705,0.00047198,7.233e-05,0.0,0 STARLINK-4486,1 53540U 22101P   23265.89165789  .00007233  00000-0  47198-3 0  9991,2 53540  53.2167 138.9803 0001415  83.4103 276.7050 15.08848791 61303,6917.854,95.437,540.697,538.74,0.0
53540.0,STARLINK-4486,PAYLOAD,2023-09-23 00:34:45,15.08863361,0.0001386,53.2165,138.3852,79.5281,280.5867,0.00063659,9.864e-05,0.0,0 STARLINK-4486,1 53540U 22101P   23266.02413284  .00009864  00000-0  63659-3 0  9995,2 53540  53.2165 138.3852 0001386  79.5281 280.5867 15.08863361 61320,6917.809,95.436,540.633,538.715,0.0
53540.0,STARLINK-4486,PAYLOAD,2023-09-24 02:00:55,15.08846674,0.0001212,53.2157,133.6255,103.9923,256.1204,0.00013909,1.927e-05,0.0,0 STARLINK-4486,1 53540U 22101P   23267.08397238  .00001927  00000-0  13909-3 0  9997,2 53540  53.2157 133.6255 0001212 103.9923 256.1204 15.08846674 60791,6917.86,95.437,540.563,538.887,0.0
53540.0,STARLINK-4486,PAYLOAD,2023-09-24 21:05:33,15.08842098,0.0001325,53.2162,130.0567,89.4731,270.6413,0.00014946,2.092e-05,0.0,0 STARLINK-4486,1 53540U 22101P   23267.87885618  .00002092  00000-0  14946-3 0  9994,2 53540  53.2162 130.0567 0001325  89.4731 270.6413 15.08842098 61604,6917.874,95.437,540.656,538.822,0.0
53540.0,STARLINK-4486,PAYLOAD,2023-09-25 08:13:15,15.08847584,0.0001424,53.2165,127.9748,81.5846,278.5308,0.00035136,5.31e-05,0.0,0 STARLINK-4486,1 53540U 22101P   23268.34253612  .00005310  00000-0  35136-3 0  9990,2 53540  53.2165 127.9748 0001424  81.5846 278.5308 15.08847584 61675,6917.857,95.437,540.707,538.737,0.0
53540.0,STARLINK-4486,PAYLOAD,2023-09-25 20:56:20,15.08845839,0.0001504,53.217,125.596,82.5915,277.5248,0.00024273,3.578e-05,0.0,0 STARLINK-4486,1 53540U 22101P   23268.87245642  .00003578  00000-0  24273-3 0  9996,2 53540  53.2170 125.5960 0001504  82.5915 277.5248 15.08845839 61750,6917.863,95.437,540.768,538.687,0.0
53540.0,STARLINK-4486,PAYLOAD,2023-09-26 00:07:06,15.08851277,0.0001505,53.217,125.0015,83.4537,276.6627,0.00033322,5.021e-05,0.0,0 STARLINK-4486,1 53540U 22101P   23269.00493396  .00005021  00000-0  33322-3 0  9993,2 53540  53.2170 125.0015 0001505  83.4537 276.6627 15.08851277 61087,6917.846,95.437,540.752,538.67,0.0
53540.0,STARLINK-4486,PAYLOAD,2023-09-26 17:36:21,15.08837698,0.0001579,53.2176,121.7287,86.7746,273.3426,9.2957e-05,1.192e-05,0.0,0 STARLINK-4486,1 53540U 22101P   23269.73358137  .00001192  00000-0  92957-4 0  9991,2 53540  53.2176 121.7287 0001579  86.7746 273.3426 15.08837698 61190,6917.887,95.438,540.845,538.66,0.0
53540.0,STARLINK-4486,PAYLOAD,2023-09-26 20:47:07,15.08839648,0.0001461,53.217,121.1317,106.036,254.0793,0.0001246,1.696e-05,0.0,0 STARLINK-4486,1 53540U 22101P   23269.86605966  .00001696  00000-0  12460-3 0  9999,2 53540  53.2170 121.1317 0001461 106.0360 254.0793 15.08839648 61909,6917.881,95.438,540.757,538.736,0.0
53540.0,STARLINK-4486,PAYLOAD,2023-09-26 23:57:53,15.08838453,0.0001433,53.217,120.5374,102.4669,257.6483,9.969e-05,1.299e-05,0.0,0 STARLINK-4486,1 53540U 22101P   23269.99854062  .00001299  00000-0  99690-4 0  9996,2 53540  53.2170 120.5374 0001433 102.4669 257.6483 15.08838453 61926,6917.885,95.438,540.741,538.759,0.0
53540.0,STARLINK-4486,PAYLOAD,2023-09-27 19:02:31,15.08835706,0.0001371,53.2168,116.9694,109.0509,251.0632,9.8345e-05,1.277e-05,0.0,0 STARLINK-4486,1 53540U 22101P   23270.79342469  .00001277  00000-0  98345-4 0  9991,2 53540  53.2168 116.9694 0001371 109.0509 251.0632 15.08835706 61353,6917.894,95.438,540.707,538.81,0.0
53540.0,STARLINK-4486,PAYLOAD,2023-09-27 23:48:41,15.08836783,0.000133,53.2161,116.08,91.3148,268.7997,8.5632e-05,1.075e-05,0.0,0 STARLINK-4486,1 53540U 22101P   23270.99214605  .00001075  00000-0  85632-4 0  9994,2 53540  53.2161 116.0800 0001330  91.3148 268.7997 15.08836783 62078,6917.89,95.438,540.675,538.835,0.0
